H1 CPF 01  gfz 2021 06 30 00  6811 tandemx   
H2 1003001  6202 36605    2021 06 30 00 59 42 2021 07 05 00 00 42   120 1 1  0 0 0
H9
10 0 59399  55422.000000  0    4448549.351   4195578.534  -3181205.939
10 0 59399  55542.000000  0    4840258.343   4304578.379  -2354686.680
10 0 59399  55662.000000  0    5148747.604   4332376.516  -1486811.432
10 0 59399  55782.000000  0    5367146.991   4279938.880   -592800.965
10 0 59399  55902.000000  0    5490194.905   4149749.536    311636.713
10 0 59399  56022.000000  0    5514363.496   3945743.143   1210588.264
10 0 59399  56142.000000  0    5437950.768   3673206.861   2088223.416
10 0 59399  56262.000000  0    5261135.431   3338654.305   2929082.948
10 0 59399  56382.000000  0    4985992.378   2949676.003   3718359.594
10 0 59399  56502.000000  0    4616469.471   2514768.949   4442165.321
10 0 59399  56622.000000  0    4158326.802   2043149.841   5087777.191
10 0 59399  56742.000000  0    3619041.768   1544560.042   5643862.430
10 0 59399  56862.000000  0    3007677.818   1029062.256   6100675.347
10 0 59399  56982.000000  0    2334724.756    506835.441   6450221.273
10 0 59399  57102.000000  0    1611914.464    -12025.279   6686389.212
10 0 59399  57222.000000  0     852014.020   -517702.563   6805054.693
10 0 59399  57342.000000  0      68597.732  -1000842.630   6804147.901
10 0 59399  57462.000000  0    -724195.825  -1452727.679   6683686.546
10 0 59399  57582.000000  0   -1511918.540  -1865433.228   6445774.645
10 0 59399  57702.000000  0   -2280074.353  -2231966.696   6094566.598
10 0 59399  57822.000000  0   -3014384.041  -2546385.769   5636200.804
10 0 59399  57942.000000  0   -3701053.894  -2803897.690   5078700.869
10 0 59399  58062.000000  0   -4327040.138  -3000934.701   4431839.490
10 0 59399  58182.000000  0   -4880301.864  -3135203.890   3706970.885
10 0 59399  58302.000000  0   -5350038.778  -3205710.618   2916834.459
10 0 59399  58422.000000  0   -5726909.503  -3212755.972   2075332.393
10 0 59399  58542.000000  0   -6003225.155  -3157908.017   1197282.189
10 0 59399  58662.000000  0   -6173111.128  -3043945.598    298149.173
10 0 59399  58782.000000  0   -6232633.630  -2874776.462   -606233.307
10 0 59399  58902.000000  0   -6179888.292  -2655332.562  -1499952.265
10 0 59399  59022.000000  0   -6015045.811  -2391443.696  -2367304.783
10 0 59399  59142.000000  0   -5740355.309  -2089694.425  -3193080.133
10 0 59399  59262.000000  0   -5360107.170  -1757268.107  -3962830.270
10 0 59399  59382.000000  0   -4880555.746  -1401781.805  -4663122.721
10 0 59399  59502.000000  0   -4309805.552  -1031116.428  -5281771.763
10 0 59399  59622.000000  0   -3657662.849   -653245.669  -5808043.896
10 0 59399  59742.000000  0   -2935457.618   -276068.267  -6232833.819
10 0 59399  59862.000000  0   -2155840.715     92752.962  -6548810.149
10 0 59399  59982.000000  0   -1332559.504    445941.784  -6750530.431
10 0 59399  60102.000000  0    -480216.881    776746.780  -6834524.394
10 0 59399  60222.000000  0     385982.487   1079066.833  -6799346.459
10 0 59399  60342.000000  0    1250495.520   1347559.668  -6645598.522
10 0 59399  60462.000000  0    2097713.803   1577734.440  -6375923.196
10 0 59399  60582.000000  0    2912240.065   1766026.466  -5994963.102
10 0 59399  60702.000000  0    3679164.232   1909851.943  -5509288.299
10 0 59399  60822.000000  0    4384333.962   2007642.567  -4927293.882
10 0 59399  60942.000000  0    5014618.726   2058860.201  -4259066.957
10 0 59399  61062.000000  0    5558160.298   2063989.990  -3516221.619
10 0 59399  61182.000000  0    6004603.853   2024511.873  -2711705.738
10 0 59399  61302.000000  0    6345306.628   1942851.312  -1859581.351
10 0 59399  61422.000000  0    6573516.820   1822309.780   -974779.459
10 0 59399  61542.000000  0    6684517.671   1666975.542    -72835.918
10 0 59399  61662.000000  0    6675731.948   1481616.846    830388.177
10 0 59399  61782.000000  0    6546783.358   1271561.171   1718991.744
10 0 59399  61902.000000  0    6299516.857   1042562.541   2577322.862
10 0 59399  62022.000000  0    5937971.174    800659.752   3390263.708
10 0 59399  62142.000000  0    5468308.124    552030.630   4143504.028
10 0 59399  62262.000000  0    4898698.162    302845.188   4823796.908
10 0 59399  62382.000000  0    4239169.804     59122.668   5419192.826
10 0 59399  62502.000000  0    3501422.365   -173406.554   5919249.014
10 0 59399  62622.000000  0    2698608.596   -389428.207   6315207.213
10 0 59399  62742.000000  0    1845094.184   -584159.238   6600141.177
10 0 59399  62862.000000  0     956196.662   -753449.236   6769072.873
10 0 59399  62982.000000  0      47907.011   -893866.156   6819054.495
10 0 59399  63102.000000  0    -863398.586  -1002764.223   6749215.362
10 0 59399  63222.000000  0   -1761252.984  -1078333.729   6560775.329
10 0 59399  63342.000000  0   -2629394.053  -1119630.898   6257024.033
10 0 59399  63462.000000  0   -3452057.761  -1126587.773   5843267.990
10 0 59399  63582.000000  0   -4214267.253  -1100002.768   5326745.257
10 0 59399  63702.000000  0   -4902111.234  -1041512.451   4716505.022
10 0 59399  63822.000000  0   -5503005.462   -953543.519   4023253.686
10 0 59399  63942.000000  0   -6005931.252   -839246.321   3259169.725
10 0 59399  64062.000000  0   -6401646.084   -702411.260   2437691.682
10 0 59399  64182.000000  0   -6682864.410   -547369.896   1573281.623
10 0 59399  64302.000000  0   -6844401.323   -378882.998    681164.989
10 0 59399  64422.000000  0   -6883273.456   -202018.669   -222945.379
10 0 59399  64542.000000  0   -6798756.031    -22022.975  -1123134.856
10 0 59399  64662.000000  0   -6592393.405    155813.345  -2003576.238
10 0 59399  64782.000000  0   -6267965.087    326287.962  -2848814.178
10 0 59399  64902.000000  0   -5831408.642    484417.277  -3644043.247
10 0 59399  65022.000000  0   -5290697.690    625560.891  -4375370.113
10 0 59399  65142.000000  0   -4655683.093    745536.337  -5030054.232
10 0 59399  65262.000000  0   -3937900.498    840721.710  -5596723.804
10 0 59399  65382.000000  0   -3150350.584    908144.020  -6065564.128
10 0 59399  65502.000000  0   -2307256.391    945551.064  -6428475.985
10 0 59399  65622.000000  0   -1423804.215    951467.001  -6679204.027
10 0 59399  65742.000000  0    -515870.390    925230.611  -6813433.638
10 0 59399  65862.000000  0     400258.683    867014.879  -6828855.605
10 0 59399  65982.000000  0    1308170.168    777828.351  -6725202.753
10 0 59399  66102.000000  0    2191612.969    659497.961  -6504256.123
10 0 59399  66222.000000  0    3034782.686    514633.756  -6169817.319
10 0 59399  66342.000000  0    3822600.304    346576.221  -5727649.575
10 0 59399  66462.000000  0    4540979.454    159325.538  -5185387.956
10 0 59399  66582.000000  0    5177080.449    -42544.449  -4552419.755
10 0 59399  66702.000000  0    5719546.902   -253987.324  -3839732.851
10 0 59399  66822.000000  0    6158717.440   -469598.313  -3059734.010
10 0 59399  66942.000000  0    6486809.604   -683739.560  -2226040.260
10 0 59399  67062.000000  0    6698071.181   -890673.665  -1353244.064
10 0 59399  67182.000000  0    6788893.074  -1084701.788   -456656.744
10 0 59399  67302.000000  0    6757881.005  -1260303.506    447964.105
10 0 59399  67422.000000  0    6605883.761  -1412274.791   1344698.859
10 0 59399  67542.000000  0    6335975.816  -1535860.912   2217754.463
10 0 59399  67662.000000  0    5953395.207  -1626879.852   3051752.519
10 0 59399  67782.000000  0    5465436.666  -1681832.831   3832007.928
10 0 59399  67902.000000  0    4881304.784  -1698000.748   4544792.648
10 0 59399  68022.000000  0    4211931.106  -1673522.416   5177579.257
10 0 59399  68142.000000  0    3469760.841  -1607453.140   5719261.026
10 0 59399  68262.000000  0    2668512.036  -1499803.597   6160344.434
10 0 59399  68382.000000  0    1822914.896  -1351557.744   6493109.651
10 0 59399  68502.000000  0     948436.338  -1164669.971   6711740.282
10 0 59399  68622.000000  0      60993.676   -942040.378   6812419.346
10 0 59399  68742.000000  0    -823335.769   -687469.313   6793390.522
10 0 59399  68862.000000  0   -1688604.630   -405592.540   6654986.121
10 0 59399  68982.000000  0   -2519281.627   -101797.099   6399621.563
10 0 59399  69102.000000  0   -3300529.591    217880.683   6031756.709
10 0 59399  69222.000000  0   -4018472.285    546873.275   5557823.676
10 0 59399  69342.000000  0   -4660445.511    878214.185   4986120.319
10 0 59399  69462.000000  0   -5215227.195   1204682.494   4326670.884
10 0 59399  69582.000000  0   -5673242.051   1518956.949   3591054.147
10 0 59399  69702.000000  0   -6026735.267   1813776.027   2792202.401
10 0 59399  69822.000000  0   -6269912.723   2082100.587   1944174.309
10 0 59399  69942.000000  0   -6399044.323   2317275.348   1061904.691
10 0 59399  70062.000000  0   -6412526.263   2513185.509    160934.701
10 0 59399  70182.000000  0   -6310899.647   2664403.233   -742870.359
10 0 59399  70302.000000  0   -6096825.934   2766320.691  -1633609.388
10 0 59399  70422.000000  0   -5775019.948   2815266.923  -2495633.707
10 0 59399  70542.000000  0   -5352141.029   2808605.058  -3313829.759
10 0 59399  70662.000000  0   -4836646.302   2744806.620  -4073887.712
10 0 59399  70782.000000  0   -4238611.458   2623502.695  -4762551.449
10 0 59399  70902.000000  0   -3569523.429   2445510.562  -5367845.105
10 0 59399  71022.000000  0   -2842051.669   2212836.511  -5879272.323
10 0 59399  71142.000000  0   -2069803.822   1928655.214  -6287988.497
10 0 59399  71262.000000  0   -1267067.678   1597265.291  -6586942.805
10 0 59399  71382.000000  0    -448548.049   1224022.927  -6770987.465
10 0 59399  71502.000000  0     370897.994    815255.085  -6836956.573
10 0 59399  71622.000000  0    1176523.320    378154.361  -6783715.285
10 0 59399  71742.000000  0    1953951.099    -79345.022  -6612178.686
10 0 59399  71862.000000  0    2689425.357   -548707.662  -6325296.670
99
